STARLINK-36349          
1 67964U 26038D   26064.66667824 -.01566913  75695-3 -30354-2 0  9999
2 67964  97.2757  74.6294 0001105  97.5370 269.1392 16.00463865  2554
STARLINK-36806          
1 67965U 26038E   26064.66667824 -.01555422  74879-3 -29703-2 0  9992
2 67965  97.2754  74.6317 0001064  90.9942 280.9582 16.00714096  2551
STARLINK-36820          
1 67966U 26038F   26064.66667824 -.01557261  75145-3 -29540-2 0  9992
2 67966  97.2754  74.6329 0001041  92.9138 281.4122 16.00831814  2553
STARLINK-36819          
1 67967U 26038G   26064.66667824 -.01554357  74989-3 -29277-2 0  9998
2 67967  97.2753  74.6338 0001118  87.9487 288.9322 16.00954616  2559
STARLINK-36812          
1 67968U 26038H   26064.66667824 -.01552098  74875-3 -29062-2 0  9995
2 67968  97.2750  74.6345 0001080  85.6168 293.4660 16.01058008  2551
STARLINK-36709          
1 67969U 26038J   26064.66667824 -.01552933  75171-3 -28654-2 0  9990
2 67969  97.2751  74.6369 0001100  82.0966 302.2075 16.01313975  2555
STARLINK-36319          
1 67970U 26038K   26064.66667824 -.01558834  75595-3 -28972-2 0  9991
2 67970  97.2749  74.6355 0001171  76.9512 304.7214 16.01188425  2525
STARLINK-36710          
1 67971U 26038L   26064.66667824 -.01545798  74663-3 -28268-2 0  9990
2 67971  97.2747  74.6384 0001038  89.9553 297.5325 16.01468954  2550
STARLINK-36894          
1 67972U 26038M   26064.66667824 -.01551228  75269-3 -28149-2 0  9997
2 67972  97.2744  74.6394 0001182  74.2276 315.8835 16.01603717  2556
STARLINK-36900          
1 67973U 26038N   26064.66667824 -.01543664  74810-3 -27598-2 0  9991
2 67973  97.2743  74.6415 0001058  85.1091 310.2474 16.01860316  2556
STARLINK-36901          
1 67974U 26038P   26064.66667824 -.01544972  74808-3 -27842-2 0  9994
2 67974  97.2743  74.6402 0001167  70.9973 321.6088 16.01722569  2559
STARLINK-36883          
1 67975U 26038Q   26064.66667824 -.01527862  73841-3 -26494-2 0  9992
2 67975  97.2737  74.6461 0001220  69.3646 336.6153 16.02384284  2555
STARLINK-36880          
1 67976U 26038R   26064.66667824 -.01539785  74574-3 -27320-2 0  9993
2 67976  97.2741  74.6425 0001146  75.1382 322.8940 16.01991508  2553
STARLINK-36904          
1 67977U 26038S   26064.66667824 -.01530904  74000-3 -26752-2 0  9990
2 67977  97.2737  74.6445 0001284  68.8039 334.5147 16.02251830  2559
STARLINK-36364          
1 67978U 26038T   26064.66667824 -.01531318  74433-3 -26059-2 0  9991
2 67978  97.2731  74.6485 0001111  86.3542 325.8417 16.02707221  2554
STARLINK-36359          
1 67979U 26038U   26064.66667824 -.01537627  74475-3 -27108-2 0  9993
2 67979  97.2738  74.6430 0001101  81.4662 318.8111 16.02101424  2556
